     2.100          NAVIGATION                              RINEX VERSION / TYPE
fic2rin                                 03/16/2013 00:17:38 PGM / RUN BY / DATE
                                                            END OF HEADER
13 13  3 15  6  0  0.0  .137539580464D-03 -.295585778076D-11  .000000000000D+00
     .720000000000D+02  .129062500000D+02  .423089051929D-08  .305473552067D+01
     .722706317902D-06  .509477499872D-02  .282377004623D-05  .515378205490D+04
     .453600000000D+06  .409781932831D-07  .210493990758D+01  .707805156708D-07
     .982061893700D+00  .335812500000D+03  .206187592079D+01 -.809676583423D-08
     .607168148133D-11  .100000000000D+01  .173100000000D+04  .000000000000D+00
     .240000000000D+01  .000000000000D+00 -.111758708954D-07  .720000000000D+02
     .446406000000D+06  .400000000000D+01
14 13  3 15  6  0  0.0  .220934394747D-03  .113686837722D-12  .000000000000D+00
     .330000000000D+02  .265625000000D+02  .435018120251D-08 -.312836822964D+01
     .140070915222D-05  .670739531051D-02  .282935798168D-05  .515371654892D+04
     .453600000000D+06  .186264514923D-08  .207619669943D+01 -.596046447754D-07
     .974757970902D+00  .331312500000D+03 -.202608638924D+01 -.813391023858D-08
     .115004790411D-09  .100000000000D+01  .173100000000D+04  .000000000000D+00
     .240000000000D+01  .000000000000D+00 -.884756445885D-08  .330000000000D+02
     .446406000000D+06  .400000000000D+01
15 13  3 15  6  0  0.0 -.111581292003D-03 -.136424205266D-11  .000000000000D+00
     .930000000000D+02  .373437500000D+02  .523414659464D-08  .264941972143D+01
     .196136534214D-05  .535526371095D-02  .227615237236D-05  .515372463608D+04
     .453600000000D+06 -.596046447754D-07  .197869174653D+01 -.372529029846D-07
     .941394691908D+00  .326375000000D+03  .156379801344D+00 -.866750389347D-08
     .107861635727D-09  .100000000000D+01  .173100000000D+04  .000000000000D+00
     .240000000000D+01  .000000000000D+00 -.102445483208D-07  .930000000000D+02
     .446406000000D+06  .400000000000D+01
16 13  3 15  6  0  0.0 -.252606812865D-03  .000000000000D+00  .000000000000D+00
     .970000000000D+02  .409375000000D+01  .398052294762D-08 -.192533527817D+01
    -.409781932831D-07  .705424987245D-02  .104289501905D-04  .515360165977D+04
     .453600000000D+06  .130385160446D-07 -.213456991766D+01 -.139698386192D-06
     .983932174484D+00  .192875000000D+03  .471726287922D-01 -.767531970787D-08
     .517164399116D-09  .100000000000D+01  .173100000000D+04  .000000000000D+00
     .240000000000D+01  .000000000000D+00 -.977888703346D-08  .970000000000D+02
     .446406000000D+06  .400000000000D+01
17 13  3 15  6  0  0.0  .402210280299D-04 -.409272615798D-11  .000000000000D+00
     .900000000000D+02 -.234375000000D+01  .491841915761D-08 -.298713037797D+01
    -.782310962677D-07  .825356307905D-02  .432692468166D-05  .515359195328D+04
     .453600000000D+06  .763684511185D-07 -.109658222526D+01 -.186264514923D-06
     .964602870507D+00  .296031250000D+03 -.220958205451D+01 -.820927052050D-08
     .546451333320D-10  .100000000000D+01  .173100000000D+04  .000000000000D+00
     .240000000000D+01  .000000000000D+00 -.102445483208D-07  .900000000000D+02
     .446406000000D+06  .400000000000D+01
18 13  3 15  6  0  0.0  .243985559791D-03  .181898940355D-11  .000000000000D+00
     .700000000000D+02  .930937500000D+02  .501270879944D-08 -.147898483455D+01
     .476837158203D-05  .138599231141D-01  .101681798697D-04  .515377204704D+04
     .453600000000D+06  .398606061935D-06  .960455914684D+00  .838190317154D-07
     .927844850611D+00  .165718750000D+03 -.212383223354D+01 -.819069831832D-08
     .439304013061D-10  .100000000000D+01  .173100000000D+04  .000000000000D+00
     .240000000000D+01  .000000000000D+00 -.107102096081D-07  .700000000000D+02
     .446406000000D+06  .400000000000D+01
19 13  3 15  6  0  0.0 -.356491189450D-03 -.318323145621D-11  .000000000000D+00
     .880000000000D+02 -.312500000000D-01  .498163607657D-08  .263718193479D+01
    -.931322574615D-08  .900655775331D-02  .469572842121D-05  .515367014885D+04
     .453600000000D+06 -.214204192162D-06 -.104439476157D+01 -.689178705215D-07
     .961889675343D+00  .290781250000D+03  .279797202745D+00 -.819176979152D-08
     .109290266664D-09  .100000000000D+01  .173100000000D+04  .000000000000D+00
     .240000000000D+01  .000000000000D+00 -.149011611938D-07  .880000000000D+02
     .446406000000D+06  .400000000000D+01
20 13  3 15  6  0  0.0  .882246531546D-04  .170530256582D-11  .000000000000D+00
     .880000000000D+02  .737187500000D+02  .509092634323D-08 -.915044576354D+00
     .382401049137D-05  .554765062407D-02  .101104378700D-04  .515379035759D+04
     .453600000000D+06 -.260770320892D-07  .906939719074D+00  .111758708954D-06
     .928584147966D+00  .167375000000D+03  .129647501660D+01 -.837963475971D-08
     .596453416107D-10  .100000000000D+01  .173100000000D+04  .000000000000D+00
     .240000000000D+01  .000000000000D+00 -.791624188423D-08  .880000000000D+02
     .446406000000D+06  .400000000000D+01
21 13  3 15  6  0  0.0 -.286137219518D-03 -.227373675443D-11  .000000000000D+00
     .360000000000D+02 -.355312500000D+02  .539986778331D-08 -.380962556620D+00
    -.179186463356D-05  .200575588970D-01  .878050923347D-05  .515371610641D+04
     .453600000000D+06 -.577419996262D-07 -.874382771266D-01  .236555933952D-06
     .931960039168D+00  .195000000000D+03 -.216445431016D+01 -.878072289521D-08
    -.544308386915D-09  .100000000000D+01  .173100000000D+04  .000000000000D+00
     .240000000000D+01  .000000000000D+00 -.111758708954D-07  .360000000000D+02
     .446406000000D+06  .400000000000D+01
22 13  3 15  6  0  0.0  .161142088473D-03  .909494701773D-12  .000000000000D+00
     .410000000000D+02  .849375000000D+02  .498199323430D-08 -.207155817680D+01
     .429898500443D-05  .629951676819D-02  .103916972876D-04  .515366006660D+04
     .453600000000D+06  .875443220139D-07  .963209190878D+00 -.121071934700D-06
     .925584353984D+00  .160656250000D+03 -.204300679379D+01 -.813676750046D-08
     .857178562071D-10  .100000000000D+01  .173100000000D+04  .000000000000D+00
     .340000000000D+01  .000000000000D+00 -.172294676304D-07  .410000000000D+02
     .446406000000D+06  .400000000000D+01
23 13  3 15  6  0  0.0  .104864127934D-03 -.363797880709D-11  .000000000000D+00
     .450000000000D+02  .314687500000D+02  .486627412842D-08  .217668482464D+01
     .162981450558D-05  .826323335059D-02  .276975333691D-05  .515373875237D+04
     .453600000000D+06 -.162050127983D-06  .201878759397D+01  .108033418655D-06
     .956299881454D+00  .325125000000D+03 -.291396036951D+01 -.845678083029D-08
     .325013538118D-10  .100000000000D+01  .173100000000D+04  .000000000000D+00
     .240000000000D+01  .000000000000D+00 -.200234353542D-07  .450000000000D+02
     .446406000000D+06  .400000000000D+01
24 13  3 15  6  0  0.0 -.269850715995D-05 -.682121026330D-12  .000000000000D+00
     .660000000000D+02 -.867500000000D+02  .449554440033D-08  .139083203605D+01
    -.463053584099D-05  .798759981990D-03  .777281820774D-05  .515370019341D+04
     .453600000000D+06  .447034835815D-07  .304528177539D+01  .372529029846D-07
     .959426767907D+00  .227531250000D+03  .233007321599D+00 -.818819821418D-08
    -.280368821344D-09  .100000000000D+01  .173100000000D+04  .000000000000D+00
     .240000000000D+01  .000000000000D+00  .325962901115D-08  .660000000000D+02
     .446406000000D+06  .400000000000D+01
26 13  3 15  6  0  0.0 -.661616213620D-04  .145519152284D-10  .000000000000D+00
     .380000000000D+02  .110625000000D+02  .423303346569D-08  .209447736033D+01
     .195577740669D-06  .212641909020D-01  .240094959736D-05  .515365919685D+04
     .453600000000D+06  .163912773132D-06  .209782897587D+01 -.456348061562D-06
     .979531471132D+00  .342750000000D+03  .122507684331D+01 -.802962018020D-08
     .575023952056D-10  .100000000000D+01  .173100000000D+04  .000000000000D+00
     .240000000000D+01  .000000000000D+00 -.605359673500D-08  .380000000000D+02
     .446406000000D+06  .400000000000D+01
28 13  3 15  6  0  0.0  .241043977439D-03  .341060513165D-11  .000000000000D+00
     .190000000000D+02  .290625000000D+02  .392302055241D-08 -.218616661553D+01
     .147707760334D-05  .186181678437D-01  .995770096779D-05  .515364112663D+04
     .453600000000D+06  .247731804848D-06 -.212822977553D+01  .540167093277D-07
     .982354943986D+00  .192593750000D+03 -.177537571226D+01 -.741780898152D-08
     .558594696283D-09  .100000000000D+01  .173100000000D+04  .000000000000D+00
     .240000000000D+01  .000000000000D+00 -.107102096081D-07  .190000000000D+02
     .446406000000D+06  .400000000000D+01
29 13  3 15  6  0  0.0  .416852999479D-03  .375166564481D-11  .000000000000D+00
     .100000000000D+03 -.203125000000D+01  .501092301077D-08 -.830571724875D-01
    -.186264514923D-08  .196926039644D-02  .482983887196D-05  .515367371559D+04
     .453600000000D+06  .130385160446D-07 -.108783690829D+01 -.111758708954D-07
     .965223270658D+00  .291437500000D+03 -.108867195217D+01 -.834427614402D-08
     .123219418298D-09  .100000000000D+01  .173100000000D+04  .000000000000D+00
     .240000000000D+01  .000000000000D+00 -.977888703346D-08  .100000000000D+03
     .446406000000D+06  .400000000000D+01
30 13  3 15  6  0  0.0 -.206033699214D-03  .716227077646D-11  .000000000000D+00
     .600000000000D+02 -.696875000000D+01  .428017828661D-08 -.296650613987D+01
    -.536441802979D-06  .108686727472D-01  .107679516077D-04  .515363651085D+04
     .453600000000D+06  .191852450371D-06 -.228386501740D+01  .596046447754D-07
     .963200062269D+00  .168062500000D+03  .161129677641D+01 -.770353516888D-08
     .393230665350D-09  .100000000000D+01  .173100000000D+04  .000000000000D+00
     .485000000000D+01  .000000000000D+00 -.419095158577D-08  .600000000000D+02
     .446406000000D+06  .400000000000D+01
